FENGYUN 1C DEB          
1 30755U 99025ATR 17345.11670330  .00000222  00000-0  78834-4 0  9996
2 30755  98.4624  30.8142 0173114  44.8129  14.1464 14.35628749564316
